PROMETHEUS 2-3          
1 41855U 16067H   25236.58246088  .00053007  00000+0  77127-3 0  9993
2 41855  98.0570  98.2926 0003187   3.9549 356.1728 15.55589330482199
CORVUS BC2              
1 42846U 17042X   25236.46497012  .00002705  00000+0  20264-3 0  9999
2 42846  97.3811  45.4503 0015421  51.9285 308.3330 15.03403051442438
CORVUS BC1              
1 42847U 17042Y   25236.43686911  .00002632  00000+0  19627-3 0  9995
2 42847  97.3813  46.0182 0013130  26.8731 333.3173 15.03633388442456
MIRATA                  
1 43015U 17073C   25236.58804879  .00089505  00000+0  97365-3 0  9997
2 43015  97.5245 135.3586 0063481 162.8103 197.5324 15.60614678422611
MAKERSAT 0              
1 43016U 17073D   25236.61165471  .00011072  00000+0  42802-3 0  9990
2 43016  97.5063 114.1205 0139853 235.9389 122.8503 15.17694114421263
SIRION PATHFINDER-2     
1 43759U 18099B   25236.38052152  .00003459  00000+0  21348-3 0  9990
2 43759  97.4712 287.4951 0008244 238.8115 121.2307 15.10534901367755
CORVUS BC4              
1 43767U 18099K   25236.55635450  .00003794  00000+0  24406-3 0  9996
2 43767  97.4526 283.1257 0007573 308.3383  51.7165 15.08952719367615
SPACEBEE-7              
1 43816U 18099BL  25236.44488965  .00030755  00000+0  75523-3 0  9999
2 43816  97.4897 308.2929 0006277 191.0303 169.0806 15.40604980368464
SHIELDS 1               
1 43850U 18104B   25236.54713873  .00036950  00000+0  36159-3 0  9999
2 43850  85.0169 342.8708 0005925 194.8524 165.2569 15.65943499373324
DUCHIFAT-3              
1 44854U 19089C   25236.33081435  .00050961  00000+0  78120-3 0  9998
2 44854  36.9387 231.3160 0007220 216.8233 143.2030 15.53270249314778
M2 PATHFINDER           
1 45727U 20037E   25236.46633143  .00002858  00000+0  21938-3 0  9993
2 45727  97.8149  59.7024 0012519  74.6734 285.5873 15.02544555280904
NETSAT-4                
1 46504U 20068U   25236.47947203  .00010506  00000+0  34180-3 0  9999
2 46504  97.8508 218.7097 0004677 305.3763  54.7040 15.32073295270166
NETSAT-3                
1 46505U 20068V   25236.48088688  .00010903  00000+0  37140-3 0  9994
2 46505  97.8513 217.4719 0004804 323.3498  36.7413 15.30575722270116
NETSAT-1                
1 46506U 20068W   25236.51828780  .00008254  00000+0  32995-3 0  9993
2 46506  97.8545 214.7628 0005284 345.0547  15.0533 15.25382281269931
NETSAT-2                
1 46507U 20068X   25236.48574718  .00012431  00000+0  40658-3 0  9996
2 46507  97.8510 218.1646 0004055 351.6911   8.4262 15.31856748270102
WILDTRACKCUBE-SIMBA     
1 47941U 21022K   25236.62490080  .00031316  00000+0  56471-3 0  9998
2 47941  97.4124 143.0629 0010613  52.3149 307.9063 15.49653713244950
LEDSAT                  
1 49069U 21073D   25236.21850888  .00115745  00000+0  84125-3 0  9994
2 49069  97.3825 321.5006 0007972 167.0632 193.0838 15.72973161223271
GREENCUBE (IO-117)      
1 53109U 22080E   25235.45183648 -.00000003  00000+0  00000+0 0  9998
2 53109  70.1449  41.7690 0008605 354.5174   5.5391  6.42583740 72933
SITRO-AIS 5 (KATYS)     
1 57176U 23091L   25236.57339782  .00008444  00000+0  38298-3 0  9995
2 57176  97.5522 293.6807 0014910  69.4055 290.8778 15.20979293119129
SITRO-AIS 6 (CHIRKIN)   
1 57192U 23091AC  25236.56577809  .00008114  00000+0  36934-3 0  9995
2 57192  97.5520 293.6697 0014844  69.2841 290.9984 15.20871826119122
SITRO-AIS 8 (ANOKHIN)   
1 57193U 23091AD  25236.59697435  .00008235  00000+0  35814-3 0  9997
2 57193  97.5517 294.3753 0014208  68.5152 291.7597 15.22435708119172
SITRO-AIS 7 (FARTUSHNIY)
1 57194U 23091AE  25236.59254769  .00007788  00000+0  35569-3 0  9996
2 57194  97.5519 293.6231 0014683  69.8277 290.4536 15.20769343119124
SITRO-AIS 10 (BURDAEV)  
1 57199U 23091AK  25236.60215354  .00010261  00000+0  40077-3 0  9990
2 57199  97.5529 297.1213 0009704  54.5449 305.6694 15.26042037119347
SITRO-AIS 9 (SHCHUKIN)  
1 57201U 23091AM  25236.56406377  .00010302  00000+0  40478-3 0  9997
2 57201  97.5527 296.9697 0009754  55.1956 305.0199 15.25842332119335
SITRO-AIS 12 (SMIRENNIY)
1 57204U 23091AQ  25236.60159561  .00010521  00000+0  41083-3 0  9991
2 57204  97.5535 297.3235 0009415  49.0205 311.1846 15.26045378119358
SITRO-AIS 11 (SHEFFER)  
1 57208U 23091AU  25236.60961458  .00010422  00000+0  40423-3 0  9998
2 57208  97.5534 297.4428 0009351  49.2732 310.9317 15.26272395119364
ROBUSTA-1E (ENSO)       
1 58470U 23185J   25236.65355617  .00075981  00000+0  77165-3 0  9997
2 58470  97.3668 314.6497 0006769 165.2081 194.9378 15.64933171 96893
SITRO-AIS 25            
1 59066U 24039R   25236.64348758  .00003080  00000+0  26170-3 0  9996
2 59066  95.3824  31.7979 0152415 282.7306  75.6919 14.89663986 80512
SITRO-AIS 26            
1 59067U 24039S   25236.60976845  .00002429  00000+0  20774-3 0  9997
2 59067  95.3825  31.7239 0152613 283.1489  75.2744 14.89513728 80509
SITRO-AIS 27            
1 59068U 24039T   25236.58803363  .00002993  00000+0  25350-3 0  9990
2 59068  95.3826  31.8597 0151851 282.4216  76.0050 14.89847755 80512
SITRO-AIS 28            
1 59071U 24039U   25236.64022569  .00003100  00000+0  26230-3 0  9991
2 59071  95.3827  31.9262 0151715 282.1367  76.2896 14.89885873 80524
GRBBETA                 
1 60237U 24128C   25236.25115213  .00004030  00000+0  30201-3 0  9998
2 60237  61.9912 175.6037 0056331  73.7566 286.9712 15.03188849 61570
OOV-CUBE (TUBSAT-30)    
1 60240U 24128F   25236.56932136  .00002602  00000+0  21437-3 0  9991
2 60240  61.9955 178.3575 0057179  70.9875 289.7398 15.00614163 61561
ROBUSTA-3A (MEDITERRAN*)
1 60243U 24128J   25236.24683535  .00006981  00000+0  48030-3 0  9997
2 60243  61.9883 173.8155 0055662  67.9452 292.7539 15.05545840 61617
LASARSAT                
1 62391U 24247Q   25236.33906850  .00013223  00000+0  48539-3 0  9994
2 62391  44.9791 106.6917 0007358 137.2228 222.9228 15.27946562 37649
CROCUBE                 
1 62394U 24247T   25235.99465329  .00013916  00000+0  50585-3 0  9992
2 62394  44.9761 108.3118 0008562 144.2364 215.9094 15.28220985 37590
